start=new Date('2021-08-22T00:00:00.000Z').valueOf();
sats=[{"OBJECT_NAME":"STARLINK-1551","TLE_LINE1":"1 46075U 20055BA  21233.82531248 -.00000646  00000-0 -24505-4 0  9996","MEAN_MOTION":"15.06392678","EPOCH":"2021-08-21T19:48:26.998272","CENTER_NAME":"EARTH","RA_OF_ASC_NODE":"352.5372","MEAN_ELEMENT_THEORY":"SGP4","PERIAPSIS":"546.402","PERIOD":"95.593","REF_FRAME":"TEME","DECAY_DATE":null,"FILE":"3101032","BSTAR":"-0.00002450500000","MEAN_ANOMALY":"249.8400","SITE":"AFETR","INCLINATION":"53.0568","TIME_SYSTEM":"UTC","ECCENTRICITY":"0.00012040","OBJECT_TYPE":"PAYLOAD","NORAD_CAT_ID":"46075","ARG_OF_PERICENTER":"110.2718","LAUNCH_DATE":"2020-08-07","COUNTRY_CODE":"US","ELEMENT_SET_NO":"999","REV_AT_EPOCH":"5897","TLE_LINE2":"2 46075  53.0568 352.5372 0001204 110.2718 249.8400 15.06392678 58978","GP_ID":"183212997","APOAPSIS":"548.070","MEAN_MOTION_DOT":"-0.00000646","SEMIMAJOR_AXIS":"6925.371","EPHEMERIS_TYPE":"0","CLASSIFICATION_TYPE":"U","OBJECT_ID":"2020-055BA","MEAN_MOTION_DDOT":"0.0000000000000","RCS_SIZE":"LARGE"},{"NORAD_CAT_ID":"46076","ECCENTRICITY":"0.00011490","OBJECT_TYPE":"PAYLOAD","INCLINATION":"53.0556","TIME_SYSTEM":"UTC","BSTAR":"-0.00001221700000","MEAN_ANOMALY":"257.2130","SITE":"AFETR","REF_FRAME":"TEME","FILE":"3101128","DECAY_DATE":null,"RA_OF_ASC_NODE":"351.5324","MEAN_ELEMENT_THEORY":"SGP4","PERIAPSIS":"546.422","PERIOD":"95.592","CENTER_NAME":"EARTH","TLE_LINE1":"1 46076U 20055BB  21234.05015504 -.00000463  00000-0 -12217-4 0  9999","EPOCH":"2021-08-22T01:12:13.395456","MEAN_MOTION":"15.06398719","OBJECT_NAME":"STARLINK-1552","OBJECT_ID":"2020-055BB","MEAN_MOTION_DDOT":"0.0000000000000","RCS_SIZE":"LARGE","EPHEMERIS_TYPE":"0","CLASSIFICATION_TYPE":"U","APOAPSIS":"548.013","MEAN_MOTION_DOT":"-0.00000463","SEMIMAJOR_AXIS":"6925.352","TLE_LINE2":"2 46076  53.0556 351.5324 0001149 102.8987 257.2130 15.06398719 58475","GP_ID":"183217818","REV_AT_EPOCH":"5847","ELEMENT_SET_NO":"999","ARG_OF_PERICENTER":"102.8987","LAUNCH_DATE":"2020-08-07","COUNTRY_CODE":"US"},{"CENTER_NAME":"EARTH","MEAN_MOTION":"15.06390652","TLE_LINE1":"1 46077U 20055BC  21233.83268523 -.00000938  00000-0 -44091-4 0  9998","OBJECT_NAME":"STARLINK-1559","EPOCH":"2021-08-21T19:59:04.003872","FILE":"3101032","DECAY_DATE":null,"REF_FRAME":"TEME","PERIAPSIS":"546.293","PERIOD":"95.593","RA_OF_ASC_NODE":"352.5061","MEAN_ELEMENT_THEORY":"SGP4","INCLINATION":"53.0548","TIME_SYSTEM":"UTC","BSTAR":"-0.00004409100000","SITE":"AFETR","MEAN_ANOMALY":"251.8371","NORAD_CAT_ID":"46077","OBJECT_TYPE":"PAYLOAD","ECCENTRICITY":"0.00013700","ELEMENT_SET_NO":"999","LAUNCH_DATE":"2020-08-07","COUNTRY_CODE":"US","ARG_OF_PERICENTER":"108.2767","REV_AT_EPOCH":"5893","MEAN_MOTION_DOT":"-0.00000938","SEMIMAJOR_AXIS":"6925.377","APOAPSIS":"548.191","GP_ID":"183211999","TLE_LINE2":"2 46077  53.0548 352.5061 0001370 108.2767 251.8371 15.06390652 58934","RCS_SIZE":"LARGE","OBJECT_ID":"2020-055BC","MEAN_MOTION_DDOT":"0.0000000000000","EPHEMERIS_TYPE":"0","CLASSIFICATION_TYPE":"U"},{"ECCENTRICITY":"0.00015420","OBJECT_TYPE":"PAYLOAD","NORAD_CAT_ID":"46078","BSTAR":"-0.00000487260000","MEAN_ANOMALY":"251.7883","SITE":"AFETR","INCLINATION":"53.0559","TIME_SYSTEM":"UTC","RA_OF_ASC_NODE":"352.6014","MEAN_ELEMENT_THEORY":"SGP4","PERIAPSIS":"546.153","PERIOD":"95.592","REF_FRAME":"TEME","FILE":"3101032","DECAY_DATE":null,"TLE_LINE1":"1 46078U 20055BD  21233.81056573 -.00000354  00000-0 -48726-5 0  9999","MEAN_MOTION":"15.06397675","OBJECT_NAME":"STARLINK-1563","EPOCH":"2021-08-21T19:27:12.879072","CENTER_NAME":"EARTH","EPHEMERIS_TYPE":"0","CLASSIFICATION_TYPE":"U","OBJECT_ID":"2020-055BD","MEAN_MOTION_DDOT":"0.0000000000000","RCS_SIZE":"LARGE","TLE_LINE2":"2 46078  53.0559 352.6014 0001542 108.3274 251.7883 15.06397675 58941","GP_ID":"183212748","APOAPSIS":"548.289","MEAN_MOTION_DOT":"-0.00000354","SEMIMAJOR_AXIS":"6925.356","REV_AT_EPOCH":"5894","ARG_OF_PERICENTER":"108.3274","LAUNCH_DATE":"2020-08-07","COUNTRY_CODE":"US","ELEMENT_SET_NO":"999"},{"APOAPSIS":"548.107","SEMIMAJOR_AXIS":"6925.354","MEAN_MOTION_DOT":"0.00001054","TLE_LINE2":"2 46079  53.0555 353.5305 0001281 110.1556 249.9571 15.06398077 58945","GP_ID":"183212497","MEAN_MOTION_DDOT":"0.0000000000000","OBJECT_ID":"2020-055BE","RCS_SIZE":"LARGE","CLASSIFICATION_TYPE":"U","EPHEMERIS_TYPE":"0","ELEMENT_SET_NO":"999","ARG_OF_PERICENTER":"110.1556","COUNTRY_CODE":"US","LAUNCH_DATE":"2020-08-07","REV_AT_EPOCH":"5894","TIME_SYSTEM":"UTC","INCLINATION":"53.0555","MEAN_ANOMALY":"249.9571","SITE":"AFETR","BSTAR":"0.00008961500000","NORAD_CAT_ID":"46079","ECCENTRICITY":"0.00012810","OBJECT_TYPE":"PAYLOAD","CENTER_NAME":"EARTH","MEAN_MOTION":"15.06398077","TLE_LINE1":"1 46079U 20055BE  21233.60415541  .00001054  00000-0  89615-4 0  9998","EPOCH":"2021-08-21T14:29:59.027424","OBJECT_NAME":"STARLINK-1566","REF_FRAME":"TEME","FILE":"3101032","DECAY_DATE":null,"MEAN_ELEMENT_THEORY":"SGP4","RA_OF_ASC_NODE":"353.5305","PERIOD":"95.592","PERIAPSIS":"546.332"},{"OBJECT_TYPE":"PAYLOAD","ECCENTRICITY":"0.00010340","NORAD_CAT_ID":"46080","MEAN_ANOMALY":"254.9760","SITE":"AFETR","BSTAR":"-0.00000069385000","TIME_SYSTEM":"UTC","INCLINATION":"53.0568","PERIOD":"95.592","PERIAPSIS":"546.510","MEAN_ELEMENT_THEORY":"SGP4","RA_OF_ASC_NODE":"351.6286","DECAY_DATE":null,"FILE":"3101131","REF_FRAME":"TEME","MEAN_MOTION":"15.06395761","TLE_LINE1":"1 46080U 20055BF  21234.02803967 -.00000292  00000-0 -69385-6 0  9999","OBJECT_NAME":"STARLINK-1568","EPOCH":"2021-08-22T00:40:22.627488","CENTER_NAME":"EARTH","CLASSIFICATION_TYPE":"U","EPHEMERIS_TYPE":"0","RCS_SIZE":"LARGE","MEAN_MOTION_DDOT":"0.0000000000000","OBJECT_ID":"2020-055BF","GP_ID":"183218365","TLE_LINE2":"2 46080  53.0568 351.6286 0001034 105.1344 254.9760 15.06395761 58474","SEMIMAJOR_AXIS":"6925.362","MEAN_MOTION_DOT":"-0.00000292","APOAPSIS":"547.943","REV_AT_EPOCH":"5847","COUNTRY_CODE":"US","LAUNCH_DATE":"2020-08-07","ARG_OF_PERICENTER":"105.1344","ELEMENT_SET_NO":"999"},{"ARG_OF_PERICENTER":"109.6729","LAUNCH_DATE":"2020-08-07","COUNTRY_CODE":"US","ELEMENT_SET_NO":"999","REV_AT_EPOCH":"5847","TLE_LINE2":"2 46081  53.0574 351.4649 0001137 109.6729 250.4383 15.06396867 58473","GP_ID":"183217862","APOAPSIS":"548.011","MEAN_MOTION_DOT":"0.00001499","SEMIMAJOR_AXIS":"6925.358","EPHEMERIS_TYPE":"0","CLASSIFICATION_TYPE":"U","OBJECT_ID":"2020-055BG","MEAN_MOTION_DDOT":"0.0000000000000","RCS_SIZE":"LARGE","TLE_LINE1":"1 46081U 20055BG  21234.06121031  .00001499  00000-0  11949-3 0  9997","MEAN_MOTION":"15.06396867","EPOCH":"2021-08-22T01:28:08.570784","OBJECT_NAME":"STARLINK-1571","CENTER_NAME":"EARTH","RA_OF_ASC_NODE":"351.4649","MEAN_ELEMENT_THEORY":"SGP4","PERIAPSIS":"546.436","PERIOD":"95.592","REF_FRAME":"TEME","DECAY_DATE":null,"FILE":"3101131","BSTAR":"0.00011949000000","MEAN_ANOMALY":"250.4383","SITE":"AFETR","INCLINATION":"53.0574","TIME_SYSTEM":"UTC","ECCENTRICITY":"0.00011370","OBJECT_TYPE":"PAYLOAD","NORAD_CAT_ID":"46081"},{"NORAD_CAT_ID":"46082","ECCENTRICITY":"0.00011530","OBJECT_TYPE":"PAYLOAD","TIME_SYSTEM":"UTC","INCLINATION":"53.0548","MEAN_ANOMALY":"254.8349","SITE":"AFETR","BSTAR":"-0.00001416100000","REF_FRAME":"TEME","DECAY_DATE":null,"FILE":"3101032","MEAN_ELEMENT_THEORY":"SGP4","RA_OF_ASC_NODE":"352.5739","PERIOD":"95.593","PERIAPSIS":"546.433","CENTER_NAME":"EARTH","MEAN_MOTION":"15.06394015","TLE_LINE1":"1 46082U 20055BH  21233.81793930 -.00000492  00000-0 -14161-4 0  9997","EPOCH":"2021-08-21T19:37:49.955520","OBJECT_NAME":"STARLINK-1578","MEAN_MOTION_DDOT":"0.0000000000000","OBJECT_ID":"2020-055BH","RCS_SIZE":"LARGE","CLASSIFICATION_TYPE":"U","EPHEMERIS_TYPE":"0","APOAPSIS":"548.030","SEMIMAJOR_AXIS":"6925.367","MEAN_MOTION_DOT":"-0.00000492","TLE_LINE2":"2 46082  53.0548 352.5739 0001153 105.2768 254.8349 15.06394015 58978","GP_ID":"183212248","REV_AT_EPOCH":"5897","ELEMENT_SET_NO":"999","ARG_OF_PERICENTER":"105.2768","COUNTRY_CODE":"US","LAUNCH_DATE":"2020-08-07"},{"REF_FRAME":"TEME","DECAY_DATE":null,"FILE":"3101133","MEAN_ELEMENT_THEORY":"SGP4","RA_OF_ASC_NODE":"351.5098","PERIOD":"95.592","PERIAPSIS":"546.458","CENTER_NAME":"EARTH","TLE_LINE1":"1 46083U 20055BJ  21234.05383935 -.00000057  00000-0  15046-4 0  9994","MEAN_MOTION":"15.06398824","EPOCH":"2021-08-22T01:17:31.719840","OBJECT_NAME":"STARLINK-1579","NORAD_CAT_ID":"46083","ECCENTRICITY":"0.00010960","OBJECT_TYPE":"PAYLOAD","TIME_SYSTEM":"UTC","INCLINATION":"53.0573","SITE":"AFETR","MEAN_ANOMALY":"260.2660","BSTAR":"0.00001504600000","REV_AT_EPOCH":"5847","ELEMENT_SET_NO":"999","ARG_OF_PERICENTER":"99.8453","COUNTRY_CODE":"US","LAUNCH_DATE":"2020-08-07","MEAN_MOTION_DDOT":"0.0000000000000","OBJECT_ID":"2020-055BJ","RCS_SIZE":"LARGE","CLASSIFICATION_TYPE":"U","EPHEMERIS_TYPE":"0","APOAPSIS":"547.976","SEMIMAJOR_AXIS":"6925.352","MEAN_MOTION_DOT":"-0.00000057","TLE_LINE2":"2 46083  53.0573 351.5098 0001096  99.8453 260.2660 15.06398824 58473","GP_ID":"183217883"},{"MEAN_MOTION_DDOT":"0.0000000000000","OBJECT_ID":"2020-057A","RCS_SIZE":"LARGE","CLASSIFICATION_TYPE":"U","EPHEMERIS_TYPE":"0","APOAPSIS":"548.162","SEMIMAJOR_AXIS":"6925.356","MEAN_MOTION_DOT":"-0.00001141","TLE_LINE2":"2 46117  53.0548 191.0635 0001358  47.3813 312.7290 15.06397414 56728","GP_ID":"183218004","REV_AT_EPOCH":"5672","ELEMENT_SET_NO":"999","ARG_OF_PERICENTER":"47.3813","COUNTRY_CODE":"US","LAUNCH_DATE":"2020-08-18","NORAD_CAT_ID":"46117","ECCENTRICITY":"0.00013580","OBJECT_TYPE":"PAYLOAD","TIME_SYSTEM":"UTC","INCLINATION":"53.0548","SITE":"AFETR","MEAN_ANOMALY":"312.7290","BSTAR":"-0.00005769300000","REF_FRAME":"TEME","FILE":"3101104","DECAY_DATE":null,"MEAN_ELEMENT_THEORY":"SGP4","RA_OF_ASC_NODE":"191.0635","PERIOD":"95.592","PERIAPSIS":"546.281","CENTER_NAME":"EARTH","OBJECT_NAME":"STARLINK-1585","TLE_LINE1":"1 46117U 20057A   21234.15336107 -.00001141  00000-0 -57693-4 0  9994","MEAN_MOTION":"15.06397414","EPOCH":"2021-08-22T03:40:50.396448"}];
